MEAN_MOTION;ECCENTRICITY;INCLINATION;RA_OF_ASC_NODE;ARG_OF_PERICENTER;MEAN_ANOMALY;BSTAR;MEAN_MOTION_DOT;MEAN_MOTION_DDOT;TYPE
14.77116918;0.0035334;47.0075;48.4494;168.4926;191.6782;1.43E-5;-1.05E-6;0;Orbcomm
14.77116959;0.0035353;47.0076;47.1326;169.763;190.3991;1.3763E-5;-1.09E-6;0;Orbcomm
14.77117165;0.0035408;47.0077;43.5114;173.308;186.8293;1.4511E-5;-1.04E-6;0;Orbcomm
14.77117374;0.0035432;47.0078;41.2071;175.5169;184.6048;1.6929E-5;-8.6E-7;0;Orbcomm
14.77117496;0.0035468;47.0078;38.9027;177.7812;182.3244;1.6837E-5;-8.7E-7;0;Orbcomm
14.77117694;0.0035493;47.0079;36.5984;179.9883;180.1016;1.8182E-5;-7.7E-7;0;Orbcomm
14.77117907;0.0035539;47.0079;33.9648;182.5744;177.4971;1.8894E-5;-7.2E-7;0;Orbcomm
14.77118104;0.0035555;47.008;31.6605;184.7763;175.2796;2.0532E-5;-6.0E-7;0;Orbcomm
14.77118227;0.003558;47.0081;30.0146;186.3867;173.6577;2.073E-5;-5.9E-7;0;Orbcomm
14.77118671;0.0035641;47.0081;24.7475;191.453;168.5555;2.2423E-5;-4.6E-7;0;Orbcomm
14.77118746;0.0035648;47.0081;24.089;192.0722;167.932;2.2724E-5;-4.4E-7;0;Orbcomm
14.77119095;0.0035698;47.0082;19.4803;196.4986;163.4748;2.4064E-5;-3.4E-7;0;Orbcomm
14.77119116;0.0035701;47.0082;19.1512;196.8147;163.1565;2.3824E-5;-3.6E-7;0;Orbcomm
14.77119478;0.0035747;47.0082;14.5425;201.2244;158.7167;2.5031E-5;-2.7E-7;0;Orbcomm
14.77119552;0.0035754;47.0083;13.555;202.1638;157.7711;2.5313E-5;-2.5E-7;0;Orbcomm
14.77119666;0.0035795;47.0083;9.6046;205.9474;153.9625;2.1908E-5;-5.0E-7;0;Orbcomm
14.77119712;0.0035812;47.0083;8.2879;207.2054;152.6963;2.1587E-5;-5.2E-7;0;Orbcomm
14.77119871;0.0035849;47.0084;4.9959;210.3521;149.5296;2.032E-5;-6.1E-7;0;Orbcomm
14.7711993;0.0035873;47.0084;3.35;211.914;147.958;1.9828E-5;-6.5E-7;0;Orbcomm
14.77120119;0.0035903;47.0084;359.729;215.3823;144.4688;1.9485E-5;-6.7E-7;0;Orbcomm
14.77120155;0.0035913;47.0084;358.4123;216.6383;143.2053;1.9204E-5;-6.9E-7;0;Orbcomm
14.77120312;0.0035954;47.0084;354.7912;220.1033;139.7205;1.7997E-5;-7.8E-7;0;Orbcomm
14.77120481;0.0035981;47.0084;351.8286;222.9369;136.8714;1.8226E-5;-7.6E-7;0;Orbcomm
14.77120502;0.0035986;47.0084;351.4994;223.2519;136.5547;1.8587E-5;-7.4E-7;0;Orbcomm
14.77120579;0.0036002;47.0083;349.8534;224.8125;134.9859;1.8372E-5;-7.5E-7;0;Orbcomm
14.77120743;0.0036036;47.0083;346.8907;227.6441;132.1399;1.8829E-5;-7.2E-7;0;Orbcomm
14.77120843;0.003604;47.0083;345.9031;228.575;131.2045;1.9963E-5;-6.4E-7;0;Orbcomm
14.77120858;0.0036047;47.0083;345.5739;228.8869;130.891;1.9731E-5;-6.5E-7;0;Orbcomm
14.77121043;0.0036074;47.0082;341.9529;232.3482;127.4136;1.9496E-5;-6.7E-7;0;Orbcomm
14.77121133;0.003608;47.0081;340.9653;233.2758;126.482;2.0034E-5;-6.3E-7;0;Orbcomm
14.77121503;0.0036104;47.008;335.6983;238.2549;121.4824;2.1711E-5;-5.1E-7;0;Orbcomm
14.77121528;0.0036105;47.0079;335.3691;238.5632;121.1729;2.2024E-5;-4.9E-7;0;Orbcomm
14.77121851;0.003614;47.0078;330.7604;242.9162;116.8042;2.2475E-5;-4.6E-7;0;Orbcomm
14.77121867;0.0036141;47.0078;330.4312;243.2259;116.4935;2.2608E-5;-4.5E-7;0;Orbcomm
14.77122201;0.0036166;47.0078;325.8224;247.5664;112.1397;2.3854E-5;-3.6E-7;0;Orbcomm
14.77122286;0.0036165;47.0077;324.8348;248.5071;111.1965;2.4438E-5;-3.1E-7;0;Orbcomm
14.77122402;0.0036182;47.0077;320.8844;252.2366;107.4577;2.0736E-5;-5.8E-7;0;Orbcomm
14.77122696;0.0036196;47.0076;316.2756;256.6016;103.0841;2.1139E-5;-5.5E-7;0;Orbcomm
14.77122722;0.0036195;47.0076;315.9465;256.9141;102.7711;2.1419E-5;-5.3E-7;0;Orbcomm
14.77122968;0.0036207;47.0075;311.3376;261.299;98.3801;2.0281E-5;-6.1E-7;0;Orbcomm
14.77122985;0.0036204;47.0074;311.0084;261.6085;98.0703;2.026E-5;-6.2E-7;0;Orbcomm
14.77123172;0.0036213;47.0073;307.7164;264.7182;94.9578;1.9986E-5;-6.4E-7;0;Orbcomm
14.77123257;0.0036209;47.0073;306.3996;265.9702;93.7051;2.0235E-5;-6.2E-7;0;Orbcomm
14.77123289;0.0036207;47.0073;306.0704;266.2929;93.3823;2.0622E-5;-5.9E-7;0;Orbcomm
14.77123467;0.0036215;47.0072;303.1075;269.0955;90.5788;2.0453E-5;-6.0E-7;0;Orbcomm
14.77123563;0.0036207;47.0072;301.4615;270.6597;89.0148;2.0333E-5;-6.1E-7;0;Orbcomm
14.77123616;0.0036203;47.0071;300.8031;271.2651;88.4095;2.0508E-5;-6.0E-7;0;Orbcomm
14.77123859;0.0036208;47.0071;297.511;274.3682;85.3074;2.0715E-5;-5.8E-7;0;Orbcomm
14.77124197;0.0036201;47.0069;293.5605;278.0888;81.5899;2.2846E-5;-4.3E-7;0;Orbcomm
14.77124225;0.0036198;47.0069;293.2313;278.3953;81.2838;2.2668E-5;-4.4E-7;0;Orbcomm
14.77124718;0.0036179;47.0068;287.9639;283.3774;76.3087;2.5053E-5;-2.7E-7;0;Orbcomm
14.77125218;0.0036159;47.0067;283.3549;287.7614;71.9335;2.8527E-5;-2.0E-8;0;Orbcomm
14.77125598;0.0036144;47.0066;279.7336;291.1913;68.512;3.0438E-5;1.2E-7;0;Orbcomm
14.77125784;0.0036125;47.0066;277.7584;293.0568;66.6518;3.0661E-5;1.3E-7;0;Orbcomm
14.77126092;0.0036107;47.0066;274.137;296.4826;63.2366;3.0722E-5;1.4E-7;0;Orbcomm
14.77126171;0.0036099;47.0066;273.4786;297.1134;62.6079;3.086E-5;1.5E-7;0;Orbcomm
14.77126502;0.0036075;47.0066;269.1988;301.2065;58.5295;2.9546E-5;5.0E-8;0;Orbcomm
14.77126611;0.003606;47.0066;267.5528;302.745;56.997;2.8695E-5;-1.0E-8;0;Orbcomm
14.77126844;0.0036028;47.0066;264.2607;305.86;53.8949;2.7098E-5;-1.2E-7;0;Orbcomm
14.77126954;0.0036018;47.0067;262.6147;307.4009;52.3608;2.6383E-5;-1.8E-7;0;Orbcomm
14.77127157;0.0035986;47.0067;259.3226;310.5122;49.2638;2.3958E-5;-3.5E-7;0;Orbcomm
14.77127432;0.0035929;47.0067;253.3969;316.1518;43.6524;2.0155E-5;-6.3E-7;0;Orbcomm
14.77127739;0.0035878;47.0067;248.1296;321.1782;38.6535;1.8747E-5;-7.3E-7;0;Orbcomm
14.77127903;0.0035843;47.0067;245.1667;323.9825;35.8654;1.795E-5;-7.9E-7;0;Orbcomm
14.77128108;0.0035805;47.0067;241.5455;327.4366;32.432;1.8239E-5;-7.7E-7;0;Orbcomm
14.77128286;0.0035768;47.0066;238.5827;330.2572;29.6288;1.8494E-5;-7.5E-7;0;Orbcomm
14.77128495;0.0035724;47.0066;235.2905;333.398;26.5079;1.8848E-5;-7.2E-7;0;Orbcomm
14.77128593;0.0035706;47.0066;233.6446;334.985;24.9312;1.9532E-5;-6.7E-7;0;Orbcomm
14.77128772;0.0035662;47.0066;230.3524;338.1436;21.7935;1.9684E-5;-6.6E-7;0;Orbcomm
14.77128872;0.0035646;47.0066;228.7065;339.7311;20.2165;1.9966E-5;-6.4E-7;0;Orbcomm
14.77129052;0.0035601;47.0067;225.7436;342.5736;17.3934;2.0169E-5;-6.3E-7;0;Orbcomm
14.77129272;0.0035561;47.0067;222.1224;346.0602;13.9307;2.1348E-5;-5.4E-7;0;Orbcomm
14.77129303;0.0035543;47.0067;221.1347;347.0098;12.9877;2.0631E-5;-6.0E-7;0;Orbcomm
14.77129546;0.0035496;47.0067;217.1844;350.833;9.1912;2.1323E-5;-5.5E-7;0;Orbcomm
14.77129743;0.0035418;47.0067;211.5879;356.2385;3.8238;1.8436E-5;-7.6E-7;0;Orbcomm
14.77129972;0.0035338;47.0066;205.9916;1.6335;358.4668;1.6311E-5;-9.1E-7;0;Orbcomm
14.77130015;0.0035333;47.0066;205.004;2.5818;357.5251;1.605E-5;-9.3E-7;0;Orbcomm
14.7713016;0.0035269;47.0066;201.0537;6.39;353.7436;1.4521E-5;-1.04E-6;0;Orbcomm
14.77130217;0.0035259;47.0065;200.0661;7.3559;352.7844;1.4705E-5;-1.03E-6;0;Orbcomm
14.77130486;0.0035188;47.0064;195.7864;11.5029;348.6661;1.5963E-5;-9.4E-7;0;Orbcomm
14.77130768;0.0035117;47.0062;190.8483;16.3005;343.9009;1.6908E-5;-8.7E-7;0;Orbcomm
14.77130952;0.0035073;47.0061;187.5562;19.4935;340.7291;1.7384E-5;-8.3E-7;0;Orbcomm
14.77131198;0.0035022;47.006;183.2765;23.6518;336.5977;1.8346E-5;-7.7E-7;0;Orbcomm
14.77131333;0.0035006;47.006;181.6305;25.2739;334.9858;1.9704E-5;-6.7E-7;0;Orbcomm
14.7713154;0.0034966;47.0059;178.3383;28.4937;331.7859;2.0855E-5;-5.8E-7;0;Orbcomm
14.77131685;0.0034949;47.0058;177.0215;29.7934;330.494;2.2495E-5;-4.7E-7;0;Orbcomm
14.77131826;0.0034907;47.0058;173.4001;33.3419;326.9664;2.0896E-5;-5.8E-7;0;Orbcomm
14.77131888;0.0034895;47.0058;172.0833;34.6355;325.6801;2.0952E-5;-5.8E-7;0;Orbcomm
14.7713214;0.0034847;47.0057;167.1451;39.4874;320.8549;2.0711E-5;-6.0E-7;0;Orbcomm
14.77132137;0.003485;47.0057;166.816;39.7957;320.5483;2.0157E-5;-6.4E-7;0;Orbcomm
14.77132155;0.0034845;47.0057;166.4868;40.1211;320.2246;1.9984E-5;-6.5E-7;0;Orbcomm
14.77132318;0.0034801;47.0057;162.2069;44.3305;316.0366;1.795E-5;-7.9E-7;0;Orbcomm
14.77132412;0.0034781;47.0057;160.2317;46.2666;314.1099;1.7069E-5;-8.6E-7;0;Orbcomm
14.77132527;0.0034755;47.0056;156.9396;49.4984;310.8929;1.5839E-5;-9.5E-7;0;Orbcomm
14.7713261;0.0034737;47.0057;155.2935;51.1095;309.2889;1.5481E-5;-9.7E-7;0;Orbcomm
14.77132795;0.0034703;47.0056;150.6845;55.644;304.7728;1.3666E-5;-1.1E-6;0;Orbcomm
14.77132806;0.0034698;47.0056;150.3553;55.9684;304.4497;1.3807E-5;-1.09E-6;0;Orbcomm
14.77133007;0.003466;47.0055;144.4294;61.8148;298.624;1.1955E-5;-1.23E-6;0;Orbcomm
14.77133135;0.0034657;47.0055;142.7834;63.4398;297.0041;1.342E-5;-1.12E-6;0;Orbcomm
14.77133341;0.0034629;47.0054;137.8451;68.3172;292.1403;1.3299E-5;-1.13E-6;0;Orbcomm
14.77133426;0.0034611;47.0055;135.8697;70.2749;290.1872;1.3588E-5;-1.11E-6;0;Orbcomm
14.77133544;0.0034613;47.0055;133.5652;72.5559;287.9113;1.3994E-5;-1.08E-6;0;Orbcomm
14.77133823;0.0034596;47.0055;131.2607;74.8389;285.6326;1.7459E-5;-8.3E-7;0;Orbcomm
14.77133857;0.0034595;47.0055;130.9314;75.1628;285.3093;1.7963E-5;-7.9E-7;0;Orbcomm
14.77134112;0.0034597;47.0055;128.2977;77.7682;282.7083;2.076E-5;-5.9E-7;0;Orbcomm
14.7713411;0.0034583;47.0056;126.3224;79.7262;280.7528;1.8356E-5;-7.7E-7;0;Orbcomm
14.77134425;0.0034589;47.0057;121.3841;84.5969;275.8868;1.9377E-5;-6.9E-7;0;Orbcomm
14.7713458;0.0034593;47.0058;120.0673;85.9063;274.5783;2.0837E-5;-5.9E-7;0;Orbcomm
14.77134643;0.0034598;47.0058;119.0797;86.8778;273.6073;2.1186E-5;-5.6E-7;0;Orbcomm
14.77135044;0.0034601;47.006;115.1291;90.7928;269.693;2.4254E-5;-3.4E-7;0;Orbcomm
14.77135183;0.0034605;47.0061;111.5077;94.3757;266.1091;2.1131E-5;-5.6E-7;0;Orbcomm
14.77135283;0.0034609;47.0061;110.1909;95.6957;264.7884;2.1025E-5;-5.7E-7;0;Orbcomm
14.77135446;0.0034615;47.0063;106.8988;98.9446;261.5368;1.9232E-5;-7.0E-7;0;Orbcomm
14.77135732;0.0034626;47.0063;104.2651;101.5666;258.9118;2.1168E-5;-5.6E-7;0;Orbcomm
14.77135752;0.0034625;47.0064;101.9606;103.8528;256.6221;1.7692E-5;-8.1E-7;0;Orbcomm
14.77136029;0.0034651;47.0066;97.3517;108.4182;252.0483;1.6626E-5;-8.9E-7;0;Orbcomm
14.77136296;0.0034676;47.0067;92.4135;113.3151;247.1398;1.5721E-5;-9.5E-7;0;Orbcomm
14.77136467;0.0034712;47.0068;90.1091;115.5725;244.8762;1.6501E-5;-9.0E-7;0;Orbcomm
